[{"OBJECT_NAME":"IRIDIUM 145","OBJECT_ID":"2018-030E","EPOCH":"2026-03-09T23:33:38.409120","MEAN_MOTION":14.34213927,"ECCENTRICITY":0.00019039,"INCLINATION":86.4013,"RA_OF_ASC_NODE":331.8973,"ARG_OF_PERICENTER":94.1139,"MEAN_ANOMALY":266.0275,"EPHEMERIS_TYPE":0,"CLASSIFICATION_TYPE":"U","NORAD_CAT_ID":43253,"ELEMENT_SET_NO":999,"REV_AT_EPOCH":41590,"BSTAR":0.00011521042,"MEAN_MOTION_DOT":3.42e-6,"MEAN_MOTION_DDOT":0},{"OBJECT_NAME":"UNKNOWN","OBJECT_ID":"","EPOCH":"2026-03-09T04:01:53.466816","MEAN_MOTION":14.16750923,"ECCENTRICITY":0.0084131,"INCLINATION":99.0154,"RA_OF_ASC_NODE":143.0914,"ARG_OF_PERICENTER":154.9361,"MEAN_ANOMALY":205.5933,"EPHEMERIS_TYPE":0,"CLASSIFICATION_TYPE":"U","NORAD_CAT_ID":89494,"ELEMENT_SET_NO":999,"REV_AT_EPOCH":47603,"BSTAR":0.0015898,"MEAN_MOTION_DOT":3.248e-5,"MEAN_MOTION_DDOT":0}]
